[{"OBJECT_NAME":"BB 1","OBJECT_ID":"2023-050K","EPOCH":"2026-03-09T20:29:58.628256","MEAN_MOTION":13.82403418,"ECCENTRICITY":0.00164346,"INCLINATION":81.0052,"RA_OF_ASC_NODE":175.5172,"ARG_OF_PERICENTER":205.3476,"MEAN_ANOMALY":154.6874,"EPHEMERIS_TYPE":0,"CLASSIFICATION_TYPE":"U","NORAD_CAT_ID":56171,"ELEMENT_SET_NO":999,"REV_AT_EPOCH":14781,"BSTAR":0.00021831819,"MEAN_MOTION_DOT":2.47e-6,"MEAN_MOTION_DDOT":0},{"OBJECT_NAME":"COSMOS 2346","OBJECT_ID":"1997-052A","EPOCH":"2026-03-09T23:52:28.820928","MEAN_MOTION":13.79817366,"ECCENTRICITY":0.00382715,"INCLINATION":82.9191,"RA_OF_ASC_NODE":61.4306,"ARG_OF_PERICENTER":241.6377,"MEAN_ANOMALY":180.8294,"EPHEMERIS_TYPE":0,"CLASSIFICATION_TYPE":"U","NORAD_CAT_ID":24953,"ELEMENT_SET_NO":999,"REV_AT_EPOCH":43269,"BSTAR":3.9295462e-5,"MEAN_MOTION_DOT":5.6e-7,"MEAN_MOTION_DDOT":0}]
